NORAD_CAT_ID,OBJECT_NAME,OBJECT_TYPE,EPOCH,MEAN_MOTION,ECCENTRICITY,INCLINATION,RA_OF_ASC_NODE,ARG_OF_PERICENTER,MEAN_ANOMALY,BSTAR,MEAN_MOTION_DOT,MEAN_MOTION_DDOT,TLE_LINE0,TLE_LINE1,TLE_LINE2,SEMIMAJOR_AXIS,PERIOD,APOGEE,PERIGEE,DECAYED
51468.0,STARLINK-3174,PAYLOAD,2022-11-05 11:21:24,15.08821567,0.0002361,53.2178,356.9017,33.1733,326.9407,-0.00026732,-4.538e-05,0.0,0 STARLINK-3174,1 51468U 22010N   22309.47320582 -.00004538  00000-0 -26732-3 0  9991,2 51468  53.2178 356.9017 0002361  33.1733 326.9407 15.08821567 43118,6917.937,95.439,541.435,538.168,0.0
51468.0,STARLINK-3174,PAYLOAD,2022-11-05 14:32:11,15.08823028,0.0002467,53.2179,356.3073,32.7686,327.3459,-0.00024536,-4.19e-05,0.0,0 STARLINK-3174,1 51468U 22010N   22309.60568534 -.00004190  00000-0 -24536-3 0  9991,2 51468  53.2179 356.3073 0002467  32.7686 327.3459 15.08823028 42322,6917.932,95.439,541.504,538.091,0.0
51468.0,STARLINK-3174,PAYLOAD,2022-11-05 20:53:43,15.08831099,0.0002429,53.2176,355.1183,30.7737,329.3397,-0.00021636,-3.729e-05,0.0,0 STARLINK-3174,1 51468U 22010N   22309.87064039 -.00003729  00000-0 -21636-3 0  9996,2 51468  53.2176 355.1183 0002429  30.7737 329.3397 15.08831099 43175,6917.908,95.438,541.453,538.092,0.0
51468.0,STARLINK-3174,PAYLOAD,2022-11-06 11:12:10,15.08836331,0.0002416,53.2173,352.4412,33.8569,326.2577,1.8089e-05,-1e-08,0.0,0 STARLINK-3174,1 51468U 22010N   22310.46679297 -.00000001  00000-0  18089-4 0  9999,2 51468  53.2173 352.4412 0002416  33.8569 326.2577 15.08836331 43260,6917.892,95.438,541.428,538.085,0.0
51468.0,STARLINK-3174,PAYLOAD,2022-11-07 06:16:49,15.08830702,0.0002491,53.2167,348.8734,30.7381,329.3757,0.00020303,2.944e-05,0.0,0 STARLINK-3174,1 51468U 22010N   22311.26168182  .00002944  00000-0  20303-3 0  9992,2 51468  53.2167 348.8734 0002491  30.7381 329.3757 15.08830702 43383,6917.909000000002,95.438,541.497,538.0509999999998,0.0
51468.0,STARLINK-3174,PAYLOAD,2022-11-07 18:59:54,15.08839168,0.0002517,53.2164,346.4949,31.8021,328.3123,0.00041575,6.335e-05,0.0,0 STARLINK-3174,1 51468U 22010N   22311.79160533  .00006335  00000-0  41575-3 0  9994,2 51468  53.2164 346.4949 0002517  31.8021 328.3123 15.08839168 42654,6917.8830000000025,95.438,541.489,538.007,0.0
51468.0,STARLINK-3174,PAYLOAD,2022-11-08 06:07:35,15.08861646,0.0002355,53.2163,344.4123,28.8904,331.2218,0.00098198,0.00015384,0.0,0 STARLINK-3174,1 51468U 22010N   22312.25527691  .00015384  00000-0  98198-3 0  9995,2 51468  53.2163 344.4123 0002355  28.8904 331.2218 15.08861646 43533,6917.814,95.436,541.308,538.05,0.0
51468.0,STARLINK-3174,PAYLOAD,2022-11-08 09:18:22,15.08862171,0.0002466,53.2168,343.8179,26.8457,333.2662,0.00079592,0.0001240999999999,0.0,0 STARLINK-3174,1 51468U 22010N   22312.38775540  .00012410  00000-0  79592-3 0  9991,2 51468  53.2168 343.8179 0002466  26.8457 333.2662 15.08862171 42747,6917.813,95.436,541.384,537.972,0.0
51468.0,STARLINK-3174,PAYLOAD,2022-11-08 18:50:39,15.08881311,0.0002463,53.2167,342.0336,27.0979,333.0141,0.00096191,0.00015071,0.0,0 STARLINK-3174,1 51468U 22010N   22312.78518469  .00015071  00000-0  96191-3 0  9990,2 51468  53.2167 342.0336 0002463  27.0979 333.0141 15.08881311 42805,6917.754,95.435,541.323,537.915,0.0
51468.0,STARLINK-3174,PAYLOAD,2022-11-09 12:19:54,15.08836037,0.0002559,53.2163,338.7621,31.3039,328.8105,-0.0010068999999999,-0.00016277,0.0,0 STARLINK-3174,1 51468U 22010N   22313.51382097 -.00016277  00000-0 -10069-2 0  9998,2 51468  53.2163 338.7621 0002559  31.3039 328.8105 15.08836037 42910,6917.893,95.438,541.528,537.987,0.0
51468.0,STARLINK-3174,PAYLOAD,2022-11-09 18:41:27,15.08821575,0.0002685,53.2161,337.5732,32.0371,328.0784,4.2228e-05,3.83e-06,0.0,0 STARLINK-3174,1 51468U 22010N   22313.77878535  .00000383  00000-0  42228-4 0  9996,2 51468  53.2161 337.5732 0002685  32.0371 328.0784 15.08821575 43765,6917.937,95.439,541.659,537.944,0.0
51468.0,STARLINK-3174,PAYLOAD,2022-11-10 08:59:55,15.08824441,0.0002563999999999,53.2161,334.8967,32.8867,327.2284,-0.00014672,-2.622e-05,0.0,0 STARLINK-3174,1 51468U 22010N   22314.37495331 -.00002622  00000-0 -14672-3 0  9993,2 51468  53.2161 334.8967 0002564  32.8867 327.2284 15.08824441 43041,6917.928000000001,95.439,541.567,538.019,0.0
51468.0,STARLINK-3174,PAYLOAD,2022-11-10 13:46:05,15.0882468,0.000245,53.2159,334.0044,34.041,326.0739,0.00062342,9.644e-05,0.0,0 STARLINK-3174,1 51468U 22010N   22314.57367717  .00009644  00000-0  62342-3 0  9997,2 51468  53.2159 334.0044 0002450  34.0410 326.0739 15.08824680 43078,6917.927,95.439,541.487,538.097,0.0
51468.0,STARLINK-3174,PAYLOAD,2022-11-11 05:39:57,15.08830926,0.0002519,53.216,331.0299,35.78800000000001,324.328,0.00050723,7.792e-05,0.0,0 STARLINK-3174,1 51468U 22010N   22315.23608389  .00007792  00000-0  50723-3 0  9996,2 51468  53.2160 331.0299 0002519  35.7880 324.3280 15.08830926 43986,6917.908,95.438,541.516,538.031,0.0
51468.0,STARLINK-3174,PAYLOAD,2022-11-11 08:50:43,15.08829428,0.0002195,53.2154,330.4354,34.4325,325.6809,0.00036356,5.501e-05,0.0,0 STARLINK-3174,1 51468U 22010N   22315.36856423  .00005501  00000-0  36356-3 0  9996,2 51468  53.2154 330.4354 0002195  34.4325 325.6809 15.08829428 43193,6917.913000000001,95.438,541.2959999999998,538.259,0.0
51468.0,STARLINK-3174,PAYLOAD,2022-11-11 18:23:02,15.08842866,0.0002523,53.2165,328.6509,33.4892,326.6259,0.00065641,0.00010175,0.0,0 STARLINK-3174,1 51468U 22010N   22315.76600517  .00010175  00000-0  65641-3 0  9993,2 51468  53.2165 328.6509 0002523  33.4892 326.6259 15.08842866 43257,6917.871999999999,95.437,541.482,537.991,0.0
51468.0,STARLINK-3174,PAYLOAD,2022-11-12 10:16:54,15.08843682,0.0002458,53.2163,325.6774,31.4589,328.655,0.0003584,5.421e-05,0.0,0 STARLINK-3174,1 51468U 22010N   22316.42840413  .00005421  00000-0  35840-3 0  9994,2 51468  53.2163 325.6774 0002458  31.4589 328.6550 15.08843682 44168,6917.869000000002,95.437,541.435,538.034,0.0
51468.0,STARLINK-3174,PAYLOAD,2022-11-12 18:13:49,15.08851988,0.0002478,53.2168,324.1907,31.6292,328.4849,0.00044602,6.82e-05,0.0,0 STARLINK-3174,1 51468U 22010N   22316.75960061  .00006820  00000-0  44602-3 0  9992,2 51468  53.2168 324.1907 0002478  31.6292 328.4849 15.08851988 43403,6917.844,95.437,541.423,537.995,0.0
51468.0,STARLINK-3174,PAYLOAD,2022-11-13 10:07:40,15.08840514,0.0002539,53.2169,321.2179,27.1461,332.9663,2.7068e-05,1.42e-06,0.0,0 STARLINK-3174,1 51468U 22010N   22317.42200179  .00000142  00000-0  27068-4 0  9993,2 51468  53.2169 321.2179 0002539  27.1461 332.9663 15.08840514 44317,6917.879,95.438,541.5,537.987,0.0
51468.0,STARLINK-3174,PAYLOAD,2022-11-13 11:43:04,15.08840904,0.00025,53.2166,320.9197,27.4583,332.654,4.2737e-05,3.92e-06,0.0,0 STARLINK-3174,1 51468U 22010N   22317.48824169  .00000392  00000-0  42737-4 0  9997,2 51468  53.2166 320.9197 0002500  27.4583 332.6540 15.08840904 43511,6917.878000000002,95.437,541.472,538.013,0.0
51468.0,STARLINK-3174,PAYLOAD,2022-11-14 08:23:05,15.08835194,0.0002576,53.2166,317.0547,29.1136,330.9999,3.2461999999999995e-05,2.28e-06,0.0,0 STARLINK-3174,1 51468U 22010N   22318.34936758  .00000228  00000-0  32462-4 0  9993,2 51468  53.2166 317.0547 0002576  29.1136 330.9999 15.08835194 44451,6917.895,95.438,541.5419999999998,537.9780000000002,0.0
51468.0,STARLINK-3174,PAYLOAD,2022-11-14 09:58:28,15.08836991,0.0002561,53.2167,316.7575,29.9751,330.1387,6.9003e-05,8.1e-06,0.0,0 STARLINK-3174,1 51468U 22010N   22318.41560827  .00000810  00000-0  69003-4 0  9999,2 51468  53.2167 316.7575 0002561  29.9751 330.1387 15.08836991 43654,6917.89,95.438,541.526,537.9830000000002,0.0
51468.0,STARLINK-3174,PAYLOAD,2022-11-14 11:33:51,15.08838173,0.0002553,53.2167,316.4601,29.5107,330.6029,8.575799999999999e-05,1.077e-05,0.0,0 STARLINK-3174,1 51468U 22010N   22318.48184745  .00001077  00000-0  85758-4 0  9998,2 51468  53.2167 316.4601 0002553  29.5107 330.6029 15.08838173 43666,6917.886,95.438,541.5169999999998,537.985,0.0
51468.0,STARLINK-3174,PAYLOAD,2022-11-15 06:38:30,15.08812706,0.0002566,53.2166,312.8918,30.7467,329.3675,0.00077822,0.0001211,0.0,0 STARLINK-3174,1 51468U 22010N   22319.27674224  .00012110  00000-0  77822-3 0  9994,2 51468  53.2166 312.8918 0002566  30.7467 329.3675 15.08812706 44592,6917.964,95.439,541.604,538.054,0.0
51468.0,STARLINK-3174,PAYLOAD,2022-11-15 11:24:38,15.0884051,0.0002579,53.2166,311.9995,28.6103,331.5030000000001,7.177899999999999e-05,8.54e-06,0.0,0 STARLINK-3174,1 51468U 22010N   22319.47544655  .00000854  00000-0  71779-4 0  9998,2 51468  53.2166 311.9995 0002579  28.6103 331.5030 15.08840510 43812,6917.879,95.438,541.528,537.96,0.0
51468.0,STARLINK-3174,PAYLOAD,2022-11-16 11:15:25,15.08840286,0.0002593,53.217,307.5391,26.3903,333.722,0.00013123,1.801e-05,0.0,0 STARLINK-3174,1 51468U 22010N   22320.46904843  .00001801  00000-0  13123-3 0  9999,2 51468  53.2170 307.5391 0002593  26.3903 333.7220 15.08840286 43968,6917.88,95.438,541.538,537.951,0.0
51468.0,STARLINK-3174,PAYLOAD,2022-11-16 16:01:34,15.08844112,0.0002586,53.2169,306.6471,26.4505,333.6618,0.00016959,2.412e-05,0.0,0 STARLINK-3174,1 51468U 22010N   22320.66776497  .00002412  00000-0  16959-3 0  9992,2 51468  53.2169 306.6471 0002586  26.4505 333.6618 15.08844112 44802,6917.868,95.437,541.5219999999998,537.944,0.0
51468.0,STARLINK-3174,PAYLOAD,2022-11-17 09:30:49,15.08841691,0.0002559,53.2171,303.3756,26.8853,333.2271,8.1735e-05,1.013e-05,0.0,0 STARLINK-3174,1 51468U 22010N   22321.39640819  .00001013  00000-0  81735-4 0  9992,2 51468  53.2171 303.3756 0002559  26.8853 333.2271 15.08841691 44917,6917.875,95.437,541.511,537.97,0.0
51468.0,STARLINK-3174,PAYLOAD,2022-11-17 11:06:12,15.08844849,0.000261,53.2171,303.0786,25.68,334.4321,5.029e-05,5.12e-06,0.0,0 STARLINK-3174,1 51468U 22010N   22321.46264601  .00000512  00000-0  50290-4 0  9996,2 51468  53.2171 303.0786 0002610  25.6800 334.4321 15.08844849 44113,6917.866,95.437,541.536,537.925,0.0
